ONEWEB-0553             
1 56055U 23043K   23309.91667824  .00000015  00000+0  00000+0 0  9997
2 56055  87.6436  59.1249 0000730 107.0343 343.1862 13.72372259 34224
ONEWEB-0554             
1 56056U 23043L   23309.91667824  .00000015  00000+0  00000+0 0  9998
2 56056  87.6612  59.0840 0003230  95.6775 290.4570 13.69076949 34218
ONEWEB-0555             
1 56057U 23043M   23309.91667824  .00000015  00000+0  00000+0 0  9999
2 56057  87.6451  59.0615 0005128  66.7604  68.4067 13.71264865 34222
ONEWEB-0557             
1 56058U 23043N   23309.91667824  .00000015  00000+0  00000+0 0  9990
2 56058  87.6635  59.0829 0003910  90.8515 345.7954 13.69249130 34210
ONEWEB-0558             
1 56059U 23043P   23309.60809932  .00000176  00000+0  39425-3 0  9990
2 56059  87.9234  74.0124 0001104  89.3092 270.8169 13.21829338 32137
ONEWEB-0559             
1 56060U 23043Q   23309.59706464  .00000131  00000+0  28568-3 0  9993
2 56060  87.9235  74.0157 0001603  73.8038 286.3272 13.21823167 32140
ONEWEB-0566             
1 56061U 23043R   23309.59075412  .00000089  00000+0  18303-3 0  9994
2 56061  87.9228  74.0190 0000949  78.0078 282.1162 13.21826179 32129
ONEWEB-0568             
1 56062U 23043S   23309.91667824  .00000016  00000+0  00000+0 0  9996
2 56062  87.6294  59.1139 0004897  81.7399  42.8089 13.74910576 34236
